LEMUR-2-JOHANLORAN      
1 44084U 19018G   22319.14946611  .00069418  00000+0  12900-2 0  9999
2 44084  97.2957  20.7993 0006319 280.9261  79.1279 15.48649793201989
LEMUR-2-BEAUDACIOUS     
1 44085U 19018H   22319.42342805  .00026735  00000+0  69216-3 0  9994
2 44085  97.2936  18.8442 0007898 295.2165  64.8261 15.39004394201882
LEMUR-2-ELHAM           
1 44086U 19018J   22319.12637754  .00034252  00000+0  77947-3 0  9995
2 44086  97.2995  20.4337 0008007 286.1257  73.9109 15.42863828201942
LEMUR-2-VICTOR-ANDREW   
1 44087U 19018K   22319.45003008  .00065060  00000+0  12007-2 0  9997
2 44087  97.2986  21.8436 0006016 276.9495  83.1071 15.48868039202067
LEMUR-2-LILLYJO         
1 44396U 19038L   22319.51249038  .00018096  00000+0  75790-3 0  9990
2 44396  97.6343 290.7435 0018441 330.7540  29.2662 15.23446183186032
LEMUR-2-WANLI           
1 44402U 19038S   22319.52842710  .00018420  00000+0  79163-3 0  9994
2 44402  97.6366 290.4224 0017949 330.4356  29.5864 15.22574736186012
LEMUR-2-MORAG           
1 44403U 19038T   22319.53634902  .00011829  00000+0  51609-3 0  9999
2 44403  97.6416 291.4427 0018446 329.9556  30.0620 15.22159545186040
LEMUR-2-DUSTINTHEWIND   
1 44405U 19038V   22319.48119216  .00016211  00000+0  70894-3 0  9998
2 44405  97.6378 290.2028 0019098 329.4680  30.5442 15.21992444186005
LEMUR-2-ALEX-MADDY      
1 44407U 19038X   22318.87820072  .00009988  00000+0  47164-3 0  9998
2 44407  97.6471 289.3460 0019401 339.4544  20.5908 15.19474193185826
LEMUR-2-EJATTA          
1 44409U 19038Z   22319.45679304  .00013597  00000+0  57513-3 0  9995
2 44409  97.6354 291.0218 0017990 323.9838  36.0184 15.23184985186061
LEMUR-2-GREGROBINSON    
1 44411U 19038AB  22319.48349961  .00020762  00000+0  88300-3 0  9994
2 44411  97.6406 291.3438 0018998 338.3728  21.6703 15.22886796185699
LEMUR-2-YNDRD           
1 44413U 19038AD  22319.44801410  .00013970  00000+0  65664-3 0  9995
2 44413  97.6451 289.6575 0019654 340.2024  19.8445 15.19539043185917
LEMUR-2-JPGSQUARED      
1 44855U 19089D   22319.59725462  .00009675  00000+0  67361-3 0  9992
2 44855  36.9651 279.2243 0004024 348.8144  11.2509 15.04982159160772
LEMUR-2-HIMOMANDDAD     
1 44860U 19089J   22319.25639565  .00010647  00000+0  74466-3 0  9994
2 44860  36.9654 282.9587 0004207 339.5215  20.5359 15.04775209160583
LEMUR-2-PAPPY           
1 44861U 19089K   22319.57605724  .00008134  00000+0  57369-3 0  9991
2 44861  36.9651 280.8732 0004223 343.3723  16.6881 15.04566790160696
LEMUR-2-THEODOSIA       
1 44863U 19089M   22319.57887991  .00010490  00000+0  72932-3 0  9992
2 44863  36.9644 279.9465 0004158 347.9623  12.1021 15.05004773160616
LEMUR-2-ETHANOAKES      
1 46298U 20061AC  22319.16575056  .00017818  00000+0  79695-3 0  9993
2 46298  97.4348  28.4012 0001579  77.2546 282.8866 15.21359858121388
LEMUR-2-OSCARLATOR      
1 46299U 20061AD  22319.45931390  .00019336  00000+0  84828-3 0  9994
2 46299  97.4359  28.8158 0001819  81.2060 278.9382 15.22004732121466
LEMUR-2-SCHMIDTFALL     
1 46315U 20061AV  22319.16302684  .00021350  00000+0  92020-3 0  9991
2 46315  97.4368  29.1040 0001970  31.5451 328.5903 15.22585834121490
LEMUR-2-DJUPROERA       
1 46316U 20061AW  22319.44970312  .00021101  00000+0  88698-3 0  9992
2 46316  97.4359  29.5734 0001941  30.5596 329.5754 15.23439289121557
LEMUR-2-SQUAREJAWS      
1 46317U 20061AX  22319.16415809  .00022162  00000+0  94258-3 0  9994
2 46317  97.4361  29.2104 0001965  26.9018 333.2320 15.23030448121514
LEMUR-2-URSA-AVION      
1 46318U 20061AY  22319.43080108  .00020452  00000+0  87354-3 0  9994
2 46318  97.4359  29.4570 0001894  25.3794 334.7535 15.22903537121551
LEMUR-2-SLICERS         
1 46500U 20068Q   22319.58491100  .00009269  00000+0  60452-3 0  9991
2 46500  97.7355 260.6519 0012755 134.2318 225.9978 15.08043018116868
LEMUR-2-DAYWZAGOODDAY   
1 46501U 20068R   22319.56052676  .00009718  00000+0  62815-3 0  9995
2 46501  97.7398 260.8861 0012773 133.2216 227.0071 15.08358605116862
LEMUR-2-SUSURRUS        
1 46502U 20068S   22319.58569728  .00012164  00000+0  79150-3 0  9998
2 46502  97.7340 260.6463 0012376 134.9001 225.3243 15.08056343116861
LEMUR-2-NICHOL          
1 46503U 20068T   22319.41114921  .00008593  00000+0  56262-3 0  9992
2 46503  97.7343 260.4180 0012050 138.8120 221.4014 15.07931494116831
LEMUR-2-OZARAK          
1 46908U 20081D   22319.54178159  .00010350  00000+0  74405-3 0  9996
2 46908  36.9034  45.8680 0005421 223.6428 136.3871 15.03744939110909
LEMUR-2-JINDRA          
1 46909U 20081E   22319.54596137  .00011480  00000+0  80798-3 0  9994
2 46909  36.9063  44.0675 0006055 231.0082 129.0093 15.04500906110933
LEMUR-2-WALLACE         
1 46910U 20081F   22319.57641108  .00010914  00000+0  77454-3 0  9994
2 46910  36.9062  44.2982 0006305 227.4827 132.5367 15.04206334110921
LEMUR-2-JEREMIAH        
1 46911U 20081G   22319.56362977  .00010025  00000+0  71630-3 0  9991
2 46911  36.9072  44.2268 0006292 232.1178 127.8980 15.03980368110931
LEMUR-2-NEVA            
1 47450U 21006AP  22319.17728679  .00014904  00000+0  67551-3 0  9997
2 47450  97.4272  16.4842 0011272 112.8289 247.4138 15.20889204100179
LEMUR-2-SAOIRSEDH5GUO   
1 47453U 21006AS  22319.42334312  .00015388  00000+0  68848-3 0  9992
2 47453  97.4296  16.8532 0010024 112.0567 248.1734 15.21338069100206
LEMUR-2-NALLYWACKER     
1 47457U 21006AW  22319.40112077  .00015118  00000+0  67228-3 0  9998
2 47457  97.4268  16.8091 0010828 110.7920 249.4476 15.21543080100218
LEMUR-2-MANGO1          
1 47493U 21006CJ  22319.42615913  .00010900  00000+0  51787-3 0  9994
2 47493  97.4221  15.6872 0010568 114.6699 245.5637 15.19343996100170
LEMUR-2-RUAIRI-EILIDH   
1 47511U 21006DC  22319.17169494  .00013928  00000+0  65291-3 0  9993
2 47511  97.4205  15.0750 0008434 116.2111 243.9992 15.19766898100118
LEMUR-2-JENNIFERSONG    
1 47525U 21006DR  22319.39942125  .00015214  00000+0  67716-3 0  9996
2 47525  97.4224  16.4357 0010976 110.4300 249.8116 15.21509006100215
LEMUR-2-CHANTAL         
1 47529U 21006DV  22319.40646787  .00011501  00000+0  55203-3 0  9990
2 47529  97.4216  15.0309 0007930 119.1131 241.0898 15.18996294101088
LEMUR-2-NOOBNOOB        
1 47538U 21006DY  22319.16980743  .00014103  00000+0  64898-3 0  9997
2 47538  97.4276  16.3295 0010843 113.7952 246.4421 15.20383553100159
LEMUR-2-AMANDA-SVANTE   
1 48269U 21034B   22319.44035184  .00003625  00000+0  39536-3 0  9999
2 48269  97.7336  27.1012 0002110 310.2030  49.9002 14.88556911 83982
LEMUR-2-SPECIAL-K       
1 48273U 21034F   22319.51710390  .00004290  00000+0  46676-3 0  9993
2 48273  97.7334  27.1520 0002079 301.8554  58.2460 14.88551434 84000
LEMUR-2-JACKSON         
1 48885U 21059G   22318.93095932  .00014805  00000+0  68165-3 0  9992
2 48885  97.5697  88.5511 0007084 299.0983  60.9542 15.20387951 76779
LEMUR-2-ANNABANANA      
1 48923U 21059AW  22319.61170820  .00016166  00000+0  70747-3 0  9992
2 48923  97.5639  89.7113 0009571 284.1866  75.8306 15.22092120 76931
LEMUR-2-JOHN-TREIRES    
1 48925U 21059AY  22319.62337057  .00017540  00000+0  74493-3 0  9991
2 48925  97.5725  90.4921 0011852 286.4685  73.5249 15.23071624 76965
LEMUR-2-AC-CUBED        
1 48927U 21059BA  22319.61785248  .00014321  00000+0  63051-3 0  9993
2 48927  97.5700  90.1952 0013998 291.0770  68.8969 15.21867240 76951
LEMUR-2-MERIMA          
1 48929U 21059BC  22319.62400353  .00016137  00000+0  69137-3 0  9995
2 48929  97.5645  90.3088 0013926 291.4070  68.5680 15.22768895 76977
LEMUR-2-CARLSANTAMARI   
1 48959U 21059CJ  22319.35712906  .00025358  00000+0  98406-3 0  9994
2 48959  97.5690  90.9393 0013031 294.1088  65.8786 15.26012115 76980
LEMUR-2-RAMONAMAE       
1 51021U 22002AP  22319.44171131  .00014446  00000+0  69668-3 0  9990
2 51021  97.4714  24.5056 0006824 268.8595  91.1858 15.18787436 46303
LEMUR-2-KING-JULIEN     
1 51022U 22002AQ  22319.45810464  .00014631  00000+0  70952-3 0  9995
2 51022  97.4694  24.3970 0006764 266.5658  93.4802 15.18592200 46309
LEMUR-2-ROHOVITHSA      
1 51036U 22002BE  22319.42924423  .00008049  00000+0  41609-3 0  9991
2 51036  97.4718  24.0983 0007360 272.5921  87.4469 15.16509950 46271
LEMUR-2-MIRIWARI        
1 51054U 22002BY  22319.43746953  .00012539  00000+0  64597-3 0  9992
2 51054  97.4704  24.0575 0006079 267.8167  92.2370 15.16512149 46277
LEMUR-2-DJIRANG         
1 51058U 22002CC  22319.43829577  .00008341  00000+0  43138-3 0  9994
2 51058  97.4691  23.9776 0006369 265.7347  94.3159 15.16488659 46272
LEMUR-2-KRYWE           
1 51100U 22003G   22319.45461011  .00072562  00000+0  16351-2 0  9992
2 51100  44.9866 312.6470 0008408  53.3412 306.8248 15.42384944 46833
LEMUR-2-TENNYSONLILY    
1 52732U 22057A   22319.58038428  .00012693  00000+0  68085-3 0  9990
2 52732  97.5345  72.2752 0008809  31.9688 328.2077 15.15065330 26285
LEMUR-2-VANDENDRIES     
1 52733U 22057B   22319.55535721  .00006828  00000+0  37274-3 0  9995
2 52733  97.5225  72.0653 0007862  28.8837 331.2829 15.14634312 26280
LEMUR-2-KAREN_B         
1 52736U 22057E   22319.54028322  .00013945  00000+0  73951-3 0  9991
2 52736  97.5214  72.0376 0007317  19.9618 340.1899 15.15457789 26284
LEMUR-2-HANCOM-1        
1 52740U 22057J   22319.56472425  .00009042  00000+0  49161-3 0  9994
2 52740  97.5406  72.4601 0010690  24.1438 336.0293 15.14662314 26286
LEMUR-2-MIMI1307        
1 52769U 22057AP  22319.56892218  .00017018  00000+0  89489-3 0  9990
2 52769  97.5394  72.7192 0014153 356.6526   3.4609 15.15648606 26308
